$H ; Home all axes (move to limit switches)
$1=255 ; lock motors
G28.1 ; set new home after homing
G21 ; Set units to Millimeters
G90 ; Set to Absolute Positioning
G17 ; Select XY plane (standard for 2D plotting)
; lift up pen
G94F30000 ; Set feed rate mode to "units per minute"
; starting plotting
G0 X685.529 Y512.892
M3 S1000;put marker down
G4 P0.2
G1 X698.485 Y512.892
G1 X698.485 Y512.892
G1 X701.412 Y512.903
G1 X704.037 Y512.937
G1 X706.412 Y512.995
G1 X708.589 Y513.079
G1 X710.621 Y513.189
G1 X712.561 Y513.328
G1 X714.46 Y513.496
G1 X716.371 Y513.695
G1 X716.371 Y513.695
G1 X716.371 Y491.796
G1 X716.371 Y491.796
G1 X714.418 Y491.995
G1 X712.48 Y492.164
G1 X710.51 Y492.302
G1 X708.46 Y492.413
G1 X706.281 Y492.496
G1 X703.924 Y492.554
G1 X701.342 Y492.588
G1 X698.485 Y492.599
G1 X698.485 Y492.599
G1 X648.267 Y492.599
G1 X648.267 Y492.599
G1 X645.68 Y492.583
G1 X643.179 Y492.538
G1 X640.786 Y492.466
G1 X638.522 Y492.37
G1 X636.408 Y492.252
G1 X634.466 Y492.115
G1 X632.717 Y491.963
G1 X631.184 Y491.796
G1 X631.184 Y491.796
G1 X631.184 Y513.695
G1 X631.184 Y513.695
G1 X633.969 Y513.463
G1 X636.307 Y513.279
G1 X638.334 Y513.139
G1 X640.184 Y513.036
G1 X641.991 Y512.965
G1 X643.889 Y512.921
G1 X646.013 Y512.899
G1 X648.497 Y512.893
G1 X648.497 Y512.892
G1 X662.026 Y512.892
G1 X662.026 Y512.892
G1 X662.026 Y570.678
G1 X662.026 Y570.678
G1 X662.014 Y573.274
G1 X661.979 Y575.672
G1 X661.917 Y577.909
G1 X661.825 Y580.022
G1 X661.701 Y582.049
G1 X661.542 Y584.028
G1 X661.345 Y585.995
G1 X661.108 Y587.99
G1 X661.108 Y587.99
G1 X686.447 Y587.99
G1 X686.447 Y587.99
G1 X686.21 Y585.981
G1 X686.013 Y583.979
G1 X685.854 Y581.958
G1 X685.73 Y579.893
G1 X685.638 Y577.758
G1 X685.576 Y575.527
G1 X685.541 Y573.176
G1 X685.529 Y570.678
G1 X685.529 Y570.678
G1 X685.529 Y512.892
M5; lift marker up
G4 P0.08
G0 X797.087 Y567.353
M3 S1000;put marker down
G4 P0.2
G1 X795.434 Y567.531
G1 X793.744 Y567.685
G1 X791.987 Y567.816
G1 X790.133 Y567.923
G1 X788.154 Y568.009
G1 X786.021 Y568.075
G1 X783.703 Y568.12
G1 X781.172 Y568.147
G1 X778.398 Y568.155
G1 X778.398 Y568.155
G1 X748.818 Y568.155
G1 X748.818 Y568.155
G1 X748.818 Y548.894
G1 X748.818 Y548.894
G1 X773.583 Y548.894
G1 X773.583 Y548.894
G1 X776.372 Y548.905
G1 X778.85 Y548.938
G1 X781.08 Y548.996
G1 X783.128 Y549.08
G1 X785.057 Y549.19
G1 X786.933 Y549.329
G1 X788.819 Y549.497
G1 X790.781 Y549.696
G1 X790.781 Y549.696
G1 X790.781 Y528.485
G1 X790.781 Y528.485
G1 X788.377 Y528.717
G1 X786.256 Y528.901
G1 X784.312 Y529.042
G1 X782.44 Y529.145
G1 X780.536 Y529.215
G1 X778.495 Y529.259
G1 X776.212 Y529.282
G1 X773.583 Y529.288
G1 X773.583 Y529.288
G1 X748.818 Y529.288
G1 X748.818 Y529.288
G1 X748.818 Y512.434
G1 X748.818 Y512.434
G1 X778.628 Y512.434
G1 X778.628 Y512.434
G1 X781.351 Y512.445
G1 X783.796 Y512.479
G1 X786.018 Y512.537
G1 X788.072 Y512.62
G1 X790.014 Y512.731
G1 X791.897 Y512.869
G1 X793.778 Y513.037
G1 X795.711 Y513.236
G1 X795.711 Y513.236
G1 X795.711 Y491.796
G1 X795.711 Y491.796
G1 X793.75 Y491.995
G1 X791.865 Y492.164
G1 X789.993 Y492.302
G1 X788.072 Y492.413
G1 X786.038 Y492.496
G1 X783.828 Y492.554
G1 X781.379 Y492.588
G1 X778.628 Y492.599
G1 X778.628 Y492.599
G1 X742.053 Y492.599
G1 X742.053 Y492.599
G1 X738.954 Y492.594
G1 X736.308 Y492.577
G1 X734.03 Y492.551
G1 X732.036 Y492.513
G1 X730.24 Y492.465
G1 X728.558 Y492.405
G1 X726.906 Y492.336
G1 X725.199 Y492.255
G1 X725.199 Y492.255
G1 X725.436 Y494.296
G1 X725.633 Y496.241
G1 X725.792 Y498.14599999999996
G1 X725.916 Y500.06600000000003
G1 X726.008 Y502.05499999999995
G1 X726.07 Y504.16999999999996
G1 X726.105 Y506.46500000000003
G1 X726.117 Y508.994
G1 X726.117 Y508.994
G1 X726.117 Y571.595
G1 X726.117 Y571.595
G1 X726.105 Y574.397
G1 X726.07 Y576.903
G1 X726.008 Y579.159
G1 X725.916 Y581.211
G1 X725.792 Y583.108
G1 X725.633 Y584.896
G1 X725.436 Y586.623
G1 X725.199 Y588.334
G1 X725.199 Y588.334
G1 X726.982 Y588.254
G1 X728.687 Y588.184
G1 X730.401 Y588.125
G1 X732.208 Y588.076
G1 X734.191 Y588.039
G1 X736.437 Y588.012
G1 X739.03 Y587.996
G1 X742.053 Y587.99
G1 X742.053 Y587.99
G1 X778.169 Y587.99
G1 X778.169 Y587.99
G1 X781.253 Y587.999
G1 X783.965 Y588.025
G1 X786.36 Y588.071
G1 X788.493 Y588.136
G1 X790.415 Y588.222
G1 X792.182 Y588.33
G1 X793.847 Y588.46
G1 X795.464 Y588.614
G1 X797.087 Y588.793
G1 X797.087 Y588.793
G1 X797.087 Y567.353
M5; lift marker up
G4 P0.08
G0 X805.915 Y559.212
M3 S1000;put marker down
G4 P0.2
G1 X806.376 Y562.082
G1 X806.82 Y564.451
G1 X807.285 Y566.452
G1 X807.812 Y568.216
G1 X808.438 Y569.875
G1 X808.438 Y569.875
G1 X809.308 Y571.994
G1 X810.311 Y573.993
G1 X811.444 Y575.871
G1 X812.705 Y577.627
G1 X814.09 Y579.261
G1 X815.597 Y580.771
G1 X817.223 Y582.157
G1 X818.965 Y583.417
G1 X820.82 Y584.551
G1 X820.82 Y584.551
G1 X822.308 Y585.344
G1 X823.91 Y586.083
G1 X825.615 Y586.766
G1 X827.415 Y587.391
G1 X829.301 Y587.958
G1 X831.264 Y588.463
G1 X833.294 Y588.906
G1 X835.383 Y589.285
G1 X837.521 Y589.599
G1 X839.7 Y589.846
G1 X841.91 Y590.024
G1 X844.142 Y590.132
G1 X846.388 Y590.169
G1 X846.388 Y590.169
G1 X848.864 Y590.13
G1 X851.262 Y590.013
G1 X853.582 Y589.819
G1 X855.823 Y589.549
G1 X857.986 Y589.202
G1 X860.07 Y588.778
G1 X862.075 Y588.279
G1 X864.001 Y587.704
G1 X865.848 Y587.053
G1 X867.615 Y586.328
G1 X869.303 Y585.528
G1 X870.911 Y584.655
G1 X872.439 Y583.707
G1 X873.887 Y582.685
G1 X875.254 Y581.591
G1 X876.541 Y580.423
G1 X876.541 Y580.423
G1 X877.917 Y578.963
G1 X879.167 Y577.398
G1 X880.289 Y575.734
G1 X881.283 Y573.975
G1 X882.148 Y572.123
G1 X882.883 Y570.185
G1 X883.487 Y568.163
G1 X883.958 Y566.062
G1 X884.296 Y563.887
G1 X884.499 Y561.64
G1 X884.567 Y559.327
G1 X884.567 Y559.327
G1 X884.494 Y556.944
G1 X884.274 Y554.661
G1 X883.908 Y552.478
G1 X883.395 Y550.394
G1 X882.735 Y548.409
G1 X881.929 Y546.52
G1 X880.977 Y544.727
G1 X879.878 Y543.03
G1 X878.632 Y541.427
G1 X877.24 Y539.917
G1 X875.702 Y538.499
G1 X874.016 Y537.173
G1 X872.185 Y535.938
G1 X872.185 Y535.938
G1 X870.687 Y535.049
G1 X869.088 Y534.215
G1 X867.369 Y533.428
G1 X865.515 Y532.684
G1 X863.508 Y531.977
G1 X861.331 Y531.301
G1 X858.967 Y530.65
G1 X856.399 Y530.019
G1 X853.611 Y529.403
G1 X853.611 Y529.403
G1 X849.141 Y528.492
G1 X845.753 Y527.796
G1 X843.264 Y527.268
G1 X841.486 Y526.866
G1 X840.235 Y526.544
G1 X839.326 Y526.259
G1 X838.572 Y525.965
G1 X837.789 Y525.619
G1 X837.789 Y525.619
G1 X835.399 Y524.198
G1 X833.719 Y522.509
G1 X832.726 Y520.54
G1 X832.4 Y518.281
G1 X832.4 Y518.281
G1 X832.635 Y516.378
G1 X833.315 Y514.641
G1 X834.401 Y513.098
G1 X835.854 Y511.775
G1 X837.634 Y510.69899999999996
G1 X839.704 Y509.89700000000005
G1 X842.023 Y509.39599999999996
G1 X844.553 Y509.22400000000005
G1 X844.553 Y509.22400000000005
G1 X847.29 Y509.34000000000003
G1 X849.703 Y509.696
G1 X851.806 Y510.302
G1 X853.615 Y511.169
G1 X855.144 Y512.306
G1 X856.409 Y513.725
G1 X857.425 Y515.435
G1 X858.207 Y517.447
G1 X858.77 Y519.772
G1 X858.77 Y519.772
G1 X883.077 Y517.135
G1 X883.077 Y517.135
G1 X882.44 Y514.513
G1 X881.79 Y512.211
G1 X881.097 Y510.16700000000003
G1 X880.334 Y508.322
G1 X879.473 Y506.615
G1 X878.486 Y504.98699999999997
G1 X877.344 Y503.376
G1 X877.344 Y503.376
G1 X876.201 Y501.90200000000004
G1 X874.957 Y500.51300000000003
G1 X873.614 Y499.211
G1 X872.174 Y497.996
G1 X870.64 Y496.869
G1 X869.012 Y495.829
G1 X867.292 Y494.878
G1 X865.483 Y494.015
G1 X863.587 Y493.241
G1 X861.604 Y492.556
G1 X859.537 Y491.962
G1 X857.388 Y491.458
G1 X855.158 Y491.044
G1 X852.85 Y490.722
G1 X850.464 Y490.491
G1 X848.004 Y490.352
G1 X845.47 Y490.306
G1 X845.47 Y490.306
G1 X842.902 Y490.355
G1 X840.409 Y490.501
G1 X837.995 Y490.743
G1 X835.661 Y491.079
G1 X833.41 Y491.507
G1 X831.243 Y492.026
G1 X829.162 Y492.635
G1 X827.169 Y493.331
G1 X825.266 Y494.113
G1 X823.456 Y494.98
G1 X821.74 Y495.931
G1 X820.12 Y496.962
G1 X818.599 Y498.07399999999996
G1 X817.177 Y499.26300000000003
G1 X815.858 Y500.53
G1 X814.643 Y501.87199999999996
G1 X813.535 Y503.288
G1 X812.534 Y504.775
G1 X811.644 Y506.33299999999997
G1 X810.866 Y507.96000000000004
G1 X810.203 Y509.655
G1 X809.655 Y511.41499999999996
G1 X809.226 Y513.24
G1 X808.917 Y515.127
G1 X808.73 Y517.076
G1 X808.667 Y519.084
G1 X808.667 Y519.084
G1 X808.748 Y521.371
G1 X808.989 Y523.589
G1 X809.389 Y525.732
G1 X809.945 Y527.797
G1 X810.656 Y529.782
G1 X811.519 Y531.681
G1 X812.532 Y533.492
G1 X813.695 Y535.212
G1 X815.003 Y536.835
G1 X816.456 Y538.36
G1 X818.052 Y539.782
G1 X819.788 Y541.097
G1 X819.788 Y541.097
G1 X821.191 Y542.035
G1 X822.613 Y542.874
G1 X824.115 Y543.636
G1 X825.759 Y544.342
G1 X827.606 Y545.012
G1 X829.716 Y545.666
G1 X832.153 Y546.327
G1 X834.976 Y547.013
G1 X838.247 Y547.747
G1 X838.247 Y547.747
G1 X842.311 Y548.692
G1 X845.626 Y549.481
G1 X848.294 Y550.141
G1 X850.415 Y550.699
G1 X852.09 Y551.182
G1 X853.419 Y551.617
G1 X854.504 Y552.029
G1 X855.445 Y552.448
G1 X855.445 Y552.448
G1 X857.455 Y553.782
G1 X858.971 Y555.644
G1 X859.927 Y557.914
G1 X860.261 Y560.474
G1 X860.261 Y560.474
G1 X860.068 Y562.518
G1 X859.498 Y564.365
G1 X858.566 Y566.002
G1 X857.286 Y567.419
G1 X855.672 Y568.603
G1 X853.738 Y569.544
G1 X851.498 Y570.23
G1 X848.967 Y570.65
G1 X846.158 Y570.792
G1 X846.158 Y570.792
G1 X843.719 Y570.674
G1 X841.423 Y570.326
G1 X839.29 Y569.754
G1 X837.338 Y568.969
G1 X835.584 Y567.976
G1 X834.047 Y566.785
G1 X832.744 Y565.404
G1 X832.744 Y565.404
G1 X831.617 Y563.691
G1 X830.781 Y561.849
G1 X830.18 Y559.664
G1 X829.763 Y556.919
G1 X829.763 Y556.919
G1 X805.915 Y559.212
M5; lift marker up
G4 P0.08
G0 X945.333 Y512.892
M3 S1000;put marker down
G4 P0.2
G1 X958.289 Y512.892
G1 X958.289 Y512.892
G1 X961.216 Y512.903
G1 X963.841 Y512.937
G1 X966.215 Y512.995
G1 X968.393 Y513.079
G1 X970.425 Y513.189
G1 X972.364 Y513.328
G1 X974.264 Y513.496
G1 X976.175 Y513.695
G1 X976.175 Y513.695
G1 X976.175 Y491.796
G1 X976.175 Y491.796
G1 X974.221 Y491.995
G1 X972.284 Y492.164
G1 X970.314 Y492.302
G1 X968.264 Y492.413
G1 X966.084 Y492.496
G1 X963.728 Y492.554
G1 X961.145 Y492.588
G1 X958.289 Y492.599
G1 X958.289 Y492.599
G1 X908.071 Y492.599
G1 X908.071 Y492.599
G1 X905.484 Y492.583
G1 X902.983 Y492.538
G1 X900.59 Y492.466
G1 X898.325 Y492.37
G1 X896.212 Y492.252
G1 X894.27 Y492.115
G1 X892.521 Y491.963
G1 X890.988 Y491.796
G1 X890.988 Y491.796
G1 X890.988 Y513.695
G1 X890.988 Y513.695
G1 X893.772 Y513.463
G1 X896.111 Y513.279
G1 X898.138 Y513.139
G1 X899.988 Y513.036
G1 X901.795 Y512.965
G1 X903.693 Y512.921
G1 X905.816 Y512.899
G1 X908.3 Y512.893
G1 X908.3 Y512.892
G1 X921.829 Y512.892
G1 X921.829 Y512.892
G1 X921.829 Y570.678
G1 X921.829 Y570.678
G1 X921.818 Y573.274
G1 X921.783 Y575.672
G1 X921.721 Y577.909
G1 X921.629 Y580.022
G1 X921.505 Y582.049
G1 X921.346 Y584.028
G1 X921.149 Y585.995
G1 X920.912 Y587.99
G1 X920.912 Y587.99
G1 X946.25 Y587.99
G1 X946.25 Y587.99
G1 X946.014 Y585.981
G1 X945.817 Y583.979
G1 X945.658 Y581.958
G1 X945.534 Y579.893
G1 X945.442 Y577.758
G1 X945.38 Y575.527
G1 X945.344 Y573.176
G1 X945.333 Y570.678
G1 X945.333 Y570.678
G1 X945.333 Y512.892
M5; lift marker up
G4 P0.08
G0 X985.003 Y492.599
M3 S1000;put marker down
G4 P0.2
G1 X985.24 Y494.424
G1 X985.437 Y496.169
G1 X985.596 Y497.918
G1 X985.72 Y499.75
G1 X985.812 Y501.75
G1 X985.874 Y503.99800000000005
G1 X985.909 Y506.577
G1 X985.92 Y509.568
G1 X985.92 Y509.568
G1 X985.92 Y571.022
G1 X985.92 Y571.022
G1 X985.909 Y573.773
G1 X985.874 Y576.285
G1 X985.812 Y578.587
G1 X985.72 Y580.71
G1 X985.596 Y582.682
G1 X985.437 Y584.533
G1 X985.24 Y586.292
G1 X985.003 Y587.99
G1 X985.003 Y587.99
G1 X1010.227 Y587.99
G1 X1010.227 Y587.99
G1 X1009.99 Y586.203
G1 X1009.793 Y584.42
G1 X1009.634 Y582.591
G1 X1009.51 Y580.667
G1 X1009.418 Y578.597
G1 X1009.356 Y576.333
G1 X1009.321 Y573.825
G1 X1009.31 Y571.022
G1 X1009.31 Y571.022
G1 X1009.31 Y509.568
G1 X1009.31 Y509.568
G1 X1009.321 Y506.62800000000004
G1 X1009.356 Y504.04600000000005
G1 X1009.418 Y501.76
G1 X1009.51 Y499.707
G1 X1009.634 Y497.827
G1 X1009.793 Y496.056
G1 X1009.99 Y494.334
G1 X1010.227 Y492.599
G1 X1010.227 Y492.599
G1 X985.003 Y492.599
M5; lift marker up
G4 P0.08
G0 X1057.464 Y506.93100000000004
M3 S1000;put marker down
G4 P0.2
G1 X1055.877 Y504.53200000000004
G1 X1054.467 Y502.321
G1 X1053.226 Y500.28999999999996
G1 X1052.147 Y498.432
G1 X1051.2240000000002 Y496.741
G1 X1050.45 Y495.209
G1 X1049.819 Y493.831
G1 X1049.324 Y492.599
G1 X1049.324 Y492.599
G1 X1024.444 Y492.599
G1 X1024.444 Y492.599
G1 X1024.681 Y494.574
G1 X1024.877 Y496.558
G1 X1025.036 Y498.568
G1 X1025.1599999999999 Y500.625
G1 X1025.252 Y502.745
G1 X1025.3139999999999 Y504.94899999999996
G1 X1025.35 Y507.255
G1 X1025.3609999999999 Y509.682
G1 X1025.3609999999999 Y509.682
G1 X1025.3609999999999 Y569.99
G1 X1025.3609999999999 Y569.99
G1 X1025.3519999999999 Y572.694
G1 X1025.325 Y575.168
G1 X1025.2759999999998 Y577.434
G1 X1025.205 Y579.515
G1 X1025.109 Y581.437
G1 X1024.987 Y583.222
G1 X1024.837 Y584.893
G1 X1024.656 Y586.475
G1 X1024.444 Y587.99
G1 X1024.444 Y587.99
G1 X1048.865 Y587.99
G1 X1048.865 Y587.99
G1 X1048.6280000000002 Y586.131
G1 X1048.431 Y584.228
G1 X1048.272 Y582.25
G1 X1048.1480000000001 Y580.165
G1 X1048.057 Y577.94
G1 X1047.9940000000001 Y575.543
G1 X1047.9589999999998 Y572.942
G1 X1047.9479999999999 Y570.104
G1 X1047.9479999999999 Y570.104
G1 X1047.9479999999999 Y544.422
G1 X1047.9479999999999 Y544.422
G1 X1047.937 Y542.287
G1 X1047.903 Y540.108
G1 X1047.845 Y537.908
G1 X1047.761 Y535.708
G1 X1047.6509999999998 Y533.53
G1 X1047.512 Y531.395
G1 X1047.344 Y529.324
G1 X1047.145 Y527.339
G1 X1047.145 Y527.339
G1 X1048.295 Y529.501
G1 X1049.354 Y531.461
G1 X1050.3519999999999 Y533.262
G1 X1051.316 Y534.949
G1 X1052.274 Y536.566
G1 X1053.2559999999999 Y538.157
G1 X1054.288 Y539.768
G1 X1055.4 Y541.441
G1 X1055.4 Y541.441
G1 X1076.6109999999999 Y573.429
G1 X1076.6109999999999 Y573.429
G1 X1078.0149999999999 Y575.588
G1 X1079.309 Y577.607
G1 X1080.501 Y579.508
G1 X1081.598 Y581.312
G1 X1082.6100000000001 Y583.04
G1 X1083.5439999999999 Y584.715
G1 X1084.408 Y586.358
G1 X1085.21 Y587.99
G1 X1085.21 Y587.99
G1 X1110.319 Y587.99
G1 X1110.319 Y587.99
G1 X1110.115 Y586.16
G1 X1109.934 Y584.273
G1 X1109.777 Y582.313
G1 X1109.645 Y580.265
G1 X1109.541 Y578.116
G1 X1109.464 Y575.85
G1 X1109.418 Y573.451
G1 X1109.402 Y570.907
G1 X1109.402 Y570.907
G1 X1109.402 Y510.02599999999995
G1 X1109.402 Y510.02599999999995
G1 X1109.413 Y507.34900000000005
G1 X1109.448 Y504.885
G1 X1109.511 Y502.597
G1 X1109.602 Y500.453
G1 X1109.726 Y498.41499999999996
G1 X1109.885 Y496.451
G1 X1110.082 Y494.523
G1 X1110.319 Y492.599
G1 X1110.319 Y492.599
G1 X1085.898 Y492.599
G1 X1085.898 Y492.599
G1 X1086.135 Y494.552
G1 X1086.331 Y496.483
G1 X1086.49 Y498.43499999999995
G1 X1086.614 Y500.453
G1 X1086.706 Y502.577
G1 X1086.769 Y504.852
G1 X1086.804 Y507.321
G1 X1086.815 Y510.02599999999995
G1 X1086.815 Y510.02599999999995
G1 X1086.815 Y536.167
G1 X1086.815 Y536.167
G1 X1086.826 Y538.523
G1 X1086.858 Y540.785
G1 X1086.912 Y542.967
G1 X1086.987 Y545.081
G1 X1087.084 Y547.142
G1 X1087.202 Y549.162
G1 X1087.342 Y551.156
G1 X1087.503 Y553.136
G1 X1087.503 Y553.136
G1 X1086.354 Y551.05
G1 X1085.245 Y549.087
G1 X1084.146 Y547.2
G1 X1083.027 Y545.343
G1 X1081.857 Y543.47
G1 X1080.608 Y541.535
G1 X1079.248 Y539.492
G1 X1079.248 Y539.492
G1 X1057.464 Y506.93100000000004
M5; lift marker up
G4 P0.08
G0 X1185.761 Y553.136
M3 S1000;put marker down
G4 P0.2
G1 X1185.761 Y566.206
G1 X1185.761 Y566.206
G1 X1183.683 Y567.206
G1 X1181.648 Y568.06
G1 X1179.634 Y568.772
G1 X1177.62 Y569.345
G1 X1175.585 Y569.783
G1 X1173.507 Y570.092
G1 X1171.365 Y570.274
G1 X1169.136 Y570.334
G1 X1169.136 Y570.334
G1 X1166.788 Y570.253
G1 X1164.562 Y570.015
G1 X1162.461 Y569.62
G1 X1160.487 Y569.073
G1 X1158.643 Y568.376
G1 X1156.932 Y567.531
G1 X1155.357 Y566.542
G1 X1153.921 Y565.412
G1 X1152.626 Y564.142
G1 X1152.626 Y564.142
G1 X1151.525 Y562.815
G1 X1150.516 Y561.356
G1 X1149.598 Y559.769
G1 X1148.774 Y558.057
G1 X1148.044 Y556.223
G1 X1147.409 Y554.268
G1 X1146.87 Y552.196
G1 X1146.426 Y550.01
G1 X1146.08 Y547.713
G1 X1145.832 Y545.307
G1 X1145.682 Y542.795
G1 X1145.632 Y540.18
G1 X1145.632 Y540.18
G1 X1145.687 Y537.487
G1 X1145.849 Y534.912
G1 X1146.119 Y532.457
G1 X1146.496 Y530.123
G1 X1146.978 Y527.912
G1 X1147.565 Y525.824
G1 X1148.256 Y523.861
G1 X1149.05 Y522.024
G1 X1149.946 Y520.316
G1 X1150.943 Y518.736
G1 X1152.041 Y517.286
G1 X1153.237 Y515.968
G1 X1154.533 Y514.784
G1 X1155.925 Y513.733
G1 X1157.415 Y512.819
G1 X1159.0 Y512.041
G1 X1160.681 Y511.40200000000004
G1 X1162.455 Y510.90200000000004
G1 X1164.323 Y510.544
G1 X1166.282 Y510.328
G1 X1168.333 Y510.255
G1 X1168.333 Y510.255
G1 X1170.656 Y510.352
G1 X1172.813 Y510.64200000000005
G1 X1174.811 Y511.13
G1 X1176.656 Y511.818
G1 X1178.355 Y512.71
G1 X1179.913 Y513.81
G1 X1179.913 Y513.81
G1 X1181.606 Y515.341
G1 X1182.966 Y517.12
G1 X1184.089 Y519.308
G1 X1185.073 Y522.065
G1 X1185.073 Y522.065
G1 X1208.462 Y516.676
G1 X1208.462 Y516.676
G1 X1207.672 Y514.437
G1 X1206.86 Y512.414
G1 X1206.004 Y510.56600000000003
G1 X1205.082 Y508.85699999999997
G1 X1204.071 Y507.24800000000005
G1 X1202.951 Y505.701
G1 X1201.697 Y504.179
G1 X1201.697 Y504.179
G1 X1200.405 Y502.69399999999996
G1 X1199.052 Y501.29499999999996
G1 X1197.636 Y499.98299999999995
G1 X1196.159 Y498.75800000000004
G1 X1194.619 Y497.619
G1 X1193.018 Y496.565
G1 X1191.354 Y495.597
G1 X1189.628 Y494.715
G1 X1187.839 Y493.917
G1 X1185.987 Y493.205
G1 X1184.073 Y492.577
G1 X1182.096 Y492.034
G1 X1180.056 Y491.575
G1 X1177.953 Y491.2
G1 X1175.786 Y490.909
G1 X1173.557 Y490.701
G1 X1171.263 Y490.577
G1 X1168.907 Y490.535
G1 X1168.907 Y490.535
G1 X1166.648 Y490.575
G1 X1164.434 Y490.693
G1 X1162.267 Y490.889
G1 X1160.146 Y491.162
G1 X1158.073 Y491.511
G1 X1156.048 Y491.935
G1 X1154.073 Y492.433
G1 X1152.147 Y493.005
G1 X1150.273 Y493.649
G1 X1148.45 Y494.365
G1 X1146.68 Y495.151
G1 X1144.963 Y496.007
G1 X1143.301 Y496.932
G1 X1141.693 Y497.92499999999995
G1 X1140.142 Y498.985
G1 X1138.647 Y500.111
G1 X1137.209 Y501.303
G1 X1135.83 Y502.558
G1 X1134.511 Y503.87800000000004
G1 X1133.251 Y505.26
G1 X1132.052 Y506.70399999999995
G1 X1130.915 Y508.20899999999995
G1 X1129.84 Y509.773
G1 X1128.829 Y511.39700000000005
G1 X1127.882 Y513.079
G1 X1127.0 Y514.818
G1 X1126.183 Y516.614
G1 X1125.434 Y518.465
G1 X1124.752 Y520.371
G1 X1124.138 Y522.331
G1 X1123.593 Y524.343
G1 X1123.118 Y526.408
G1 X1122.714 Y528.523
G1 X1122.381 Y530.689
G1 X1122.121 Y532.904
G1 X1121.935 Y535.167
G1 X1121.822 Y537.478
G1 X1121.784 Y539.836
G1 X1121.784 Y539.836
G1 X1121.82 Y542.176
G1 X1121.928 Y544.483
G1 X1122.106 Y546.755
G1 X1122.355 Y548.99
G1 X1122.673 Y551.185
G1 X1123.06 Y553.338
G1 X1123.515 Y555.447
G1 X1124.037 Y557.511
G1 X1124.626 Y559.526
G1 X1125.281 Y561.491
G1 X1126.002 Y563.404
G1 X1126.787 Y565.261
G1 X1127.636 Y567.063
G1 X1128.548 Y568.805
G1 X1129.523 Y570.486
G1 X1130.56 Y572.104
G1 X1131.658 Y573.657
G1 X1132.817 Y575.142
G1 X1134.036 Y576.557
G1 X1135.313 Y577.901
G1 X1135.313 Y577.901
G1 X1136.7 Y579.237
G1 X1138.146 Y580.496
G1 X1139.651 Y581.676
G1 X1141.216 Y582.778
G1 X1142.84 Y583.803
G1 X1144.524 Y584.75
G1 X1146.267 Y585.62
G1 X1148.07 Y586.414
G1 X1149.932 Y587.13
G1 X1151.853 Y587.771
G1 X1153.834 Y588.334
G1 X1155.874 Y588.823
G1 X1157.974 Y589.235
G1 X1160.134 Y589.572
G1 X1162.352 Y589.833
G1 X1164.631 Y590.02
G1 X1166.968 Y590.131
G1 X1169.365 Y590.169
G1 X1169.365 Y590.169
G1 X1171.484 Y590.14
G1 X1173.594 Y590.055
G1 X1175.694 Y589.914
G1 X1177.782 Y589.719
G1 X1179.853 Y589.469
G1 X1181.905 Y589.165
G1 X1183.937 Y588.81
G1 X1185.943 Y588.402
G1 X1187.923 Y587.944
G1 X1189.873 Y587.435
G1 X1191.79 Y586.877
G1 X1193.672 Y586.27
G1 X1193.672 Y586.27
G1 X1195.52 Y585.631
G1 X1197.237 Y584.981
G1 X1198.884 Y584.287
G1 X1200.522 Y583.519
G1 X1202.215 Y582.643
G1 X1204.023 Y581.627
G1 X1206.008 Y580.439
G1 X1208.233 Y579.047
G1 X1208.233 Y579.047
G1 X1208.001 Y577.133
G1 X1207.817 Y575.298
G1 X1207.676 Y573.471
G1 X1207.573 Y571.581
G1 X1207.503 Y569.556
G1 X1207.459 Y567.326
G1 X1207.436 Y564.819
G1 X1207.43 Y561.964
G1 X1207.43 Y561.964
G1 X1207.43 Y549.123
G1 X1207.43 Y549.123
G1 X1207.444 Y546.141
G1 X1207.489 Y543.535
G1 X1207.565 Y541.229
G1 X1207.676 Y539.15
G1 X1207.823 Y537.223
G1 X1208.008 Y535.375
G1 X1208.233 Y533.53
G1 X1208.233 Y533.53
G1 X1206.113 Y533.706
G1 X1204.049 Y533.844
G1 X1201.999 Y533.948
G1 X1199.922 Y534.022
G1 X1197.774 Y534.07
G1 X1195.513 Y534.096
G1 X1193.098 Y534.103
G1 X1193.098 Y534.103
G1 X1183.926 Y534.103
G1 X1183.926 Y534.103
G1 X1180.79 Y534.095
G1 X1178.181 Y534.067
G1 X1175.981 Y534.013
G1 X1174.072 Y533.927
G1 X1172.336 Y533.802
G1 X1170.653 Y533.634
G1 X1168.907 Y533.415
G1 X1168.907 Y533.415
G1 X1168.907 Y553.709
G1 X1168.907 Y553.709
G1 X1170.891 Y553.473
G1 X1172.754 Y553.309
G1 X1174.759 Y553.205
G1 X1177.173 Y553.151
G1 X1180.257 Y553.136
G1 X1180.257 Y553.136
G1 X1185.761 Y553.136
M5; lift marker up
G4 P0.08
G0 X1256.387 Y559.212
M3 S1000;put marker down
G4 P0.2
G1 X1256.847 Y562.082
G1 X1257.291 Y564.451
G1 X1257.757 Y566.452
G1 X1258.284 Y568.216
G1 X1258.909 Y569.875
G1 X1258.909 Y569.875
G1 X1259.779 Y571.994
G1 X1260.782 Y573.993
G1 X1261.916 Y575.871
G1 X1263.176 Y577.627
G1 X1264.562 Y579.261
G1 X1266.069 Y580.771
G1 X1267.695 Y582.157
G1 X1269.437 Y583.417
G1 X1271.292 Y584.551
G1 X1271.292 Y584.551
G1 X1272.78 Y585.344
G1 X1274.381 Y586.083
G1 X1276.087 Y586.766
G1 X1277.887 Y587.391
G1 X1279.773 Y587.958
G1 X1281.736 Y588.463
G1 X1283.766 Y588.906
G1 X1285.855 Y589.285
G1 X1287.993 Y589.599
G1 X1290.172 Y589.846
G1 X1292.382 Y590.024
G1 X1294.614 Y590.132
G1 X1296.859 Y590.169
G1 X1296.859 Y590.169
G1 X1299.336 Y590.13
G1 X1301.734 Y590.013
G1 X1304.054 Y589.819
G1 X1306.295 Y589.549
G1 X1308.458 Y589.202
G1 X1310.542 Y588.778
G1 X1312.547 Y588.279
G1 X1314.473 Y587.704
G1 X1316.32 Y587.053
G1 X1318.087 Y586.328
G1 X1319.775 Y585.528
G1 X1321.383 Y584.655
G1 X1322.911 Y583.707
G1 X1324.358 Y582.685
G1 X1325.726 Y581.591
G1 X1327.013 Y580.423
G1 X1327.013 Y580.423
G1 X1328.389 Y578.963
G1 X1329.638 Y577.398
G1 X1330.761 Y575.734
G1 X1331.755 Y573.975
G1 X1332.62 Y572.123
G1 X1333.355 Y570.185
G1 X1333.958 Y568.163
G1 X1334.43 Y566.062
G1 X1334.767 Y563.887
G1 X1334.971 Y561.64
G1 X1335.039 Y559.327
G1 X1335.039 Y559.327
G1 X1334.966 Y556.944
G1 X1334.746 Y554.661
G1 X1334.379 Y552.478
G1 X1333.867 Y550.394
G1 X1333.207 Y548.409
G1 X1332.401 Y546.52
G1 X1331.449 Y544.727
G1 X1330.35 Y543.03
G1 X1329.104 Y541.427
G1 X1327.712 Y539.917
G1 X1326.173 Y538.499
G1 X1324.488 Y537.173
G1 X1322.656 Y535.938
G1 X1322.656 Y535.938
G1 X1321.159 Y535.049
G1 X1319.559 Y534.215
G1 X1317.841 Y533.428
G1 X1315.987 Y532.684
G1 X1313.98 Y531.977
G1 X1311.803 Y531.301
G1 X1309.439 Y530.65
G1 X1306.871 Y530.019
G1 X1304.083 Y529.403
G1 X1304.083 Y529.403
G1 X1299.612 Y528.492
G1 X1296.225 Y527.796
G1 X1293.736 Y527.268
G1 X1291.958 Y526.866
G1 X1290.707 Y526.544
G1 X1289.798 Y526.259
G1 X1289.044 Y525.965
G1 X1288.261 Y525.619
G1 X1288.26 Y525.619
G1 X1285.871 Y524.198
G1 X1284.19 Y522.509
G1 X1283.198 Y520.54
G1 X1282.872 Y518.281
G1 X1282.872 Y518.281
G1 X1283.107 Y516.378
G1 X1283.787 Y514.641
G1 X1284.873 Y513.098
G1 X1286.326 Y511.775
G1 X1288.106 Y510.69899999999996
G1 X1290.176 Y509.89700000000005
G1 X1292.495 Y509.39599999999996
G1 X1295.025 Y509.22400000000005
G1 X1295.025 Y509.22400000000005
G1 X1297.762 Y509.34000000000003
G1 X1300.175 Y509.696
G1 X1302.278 Y510.302
G1 X1304.086 Y511.169
G1 X1305.616 Y512.306
G1 X1306.881 Y513.725
G1 X1307.897 Y515.435
G1 X1308.679 Y517.447
G1 X1309.242 Y519.772
G1 X1309.242 Y519.772
G1 X1333.548 Y517.135
G1 X1333.548 Y517.135
G1 X1332.912 Y514.513
G1 X1332.261 Y512.211
G1 X1331.569 Y510.16700000000003
G1 X1330.806 Y508.322
G1 X1329.945 Y506.615
G1 X1328.958 Y504.98699999999997
G1 X1327.816 Y503.376
G1 X1327.816 Y503.376
G1 X1326.672 Y501.90200000000004
G1 X1325.428 Y500.51300000000003
G1 X1324.086 Y499.211
G1 X1322.646 Y497.996
G1 X1321.111 Y496.869
G1 X1319.483 Y495.829
G1 X1317.764 Y494.878
G1 X1315.955 Y494.015
G1 X1314.058 Y493.241
G1 X1312.076 Y492.556
G1 X1310.009 Y491.962
G1 X1307.86 Y491.458
G1 X1305.63 Y491.044
G1 X1303.321 Y490.722
G1 X1300.936 Y490.491
G1 X1298.476 Y490.352
G1 X1295.942 Y490.306
G1 X1295.942 Y490.306
G1 X1293.374 Y490.355
G1 X1290.881 Y490.501
G1 X1288.467 Y490.743
G1 X1286.133 Y491.079
G1 X1283.882 Y491.507
G1 X1281.714 Y492.026
G1 X1279.633 Y492.635
G1 X1277.641 Y493.331
G1 X1275.738 Y494.113
G1 X1273.928 Y494.98
G1 X1272.212 Y495.931
G1 X1270.592 Y496.962
G1 X1269.07 Y498.07399999999996
G1 X1267.649 Y499.26300000000003
G1 X1266.33 Y500.53
G1 X1265.115 Y501.87199999999996
G1 X1264.007 Y503.288
G1 X1263.006 Y504.775
G1 X1262.116 Y506.33299999999997
G1 X1261.338 Y507.96000000000004
G1 X1260.674 Y509.655
G1 X1260.127 Y511.41499999999996
G1 X1259.697 Y513.24
G1 X1259.388 Y515.127
G1 X1259.201 Y517.076
G1 X1259.139 Y519.084
G1 X1259.139 Y519.084
G1 X1259.219 Y521.371
G1 X1259.461 Y523.589
G1 X1259.861 Y525.732
G1 X1260.417 Y527.797
G1 X1261.127 Y529.782
G1 X1261.991 Y531.681
G1 X1263.004 Y533.492
G1 X1264.166 Y535.212
G1 X1265.475 Y536.835
G1 X1266.928 Y538.36
G1 X1268.524 Y539.782
G1 X1270.26 Y541.097
G1 X1270.26 Y541.097
G1 X1271.663 Y542.035
G1 X1273.085 Y542.874
G1 X1274.587 Y543.636
G1 X1276.231 Y544.342
G1 X1278.077 Y545.012
G1 X1280.188 Y545.666
G1 X1282.624 Y546.327
G1 X1285.448 Y547.013
G1 X1288.719 Y547.747
G1 X1288.719 Y547.747
G1 X1292.783 Y548.692
G1 X1296.098 Y549.481
G1 X1298.766 Y550.141
G1 X1300.887 Y550.699
G1 X1302.561 Y551.182
G1 X1303.891 Y551.617
G1 X1304.976 Y552.029
G1 X1305.917 Y552.448
G1 X1305.917 Y552.448
G1 X1307.927 Y553.782
G1 X1309.443 Y555.644
G1 X1310.399 Y557.914
G1 X1310.733 Y560.473
G1 X1310.732 Y560.473
G1 X1310.54 Y562.518
G1 X1309.97 Y564.365
G1 X1309.038 Y566.002
G1 X1307.758 Y567.419
G1 X1306.144 Y568.603
G1 X1304.21 Y569.544
G1 X1301.97 Y570.23
G1 X1299.439 Y570.65
G1 X1296.63 Y570.792
G1 X1296.63 Y570.792
G1 X1294.19 Y570.674
G1 X1291.895 Y570.326
G1 X1289.762 Y569.754
G1 X1287.81 Y568.969
G1 X1286.056 Y567.976
G1 X1284.518 Y566.785
G1 X1283.216 Y565.404
G1 X1283.216 Y565.404
G1 X1282.089 Y563.691
G1 X1281.252 Y561.849
G1 X1280.652 Y559.664
G1 X1280.235 Y556.919
G1 X1280.235 Y556.919
G1 X1256.387 Y559.212
M5; lift marker up
G4 P0.08
G0 X1370.123 Y504.981
M3 S1000;put marker down
G4 P0.2
G1 X1369.513 Y502.846
G1 X1368.951 Y500.701
G1 X1368.446 Y498.57500000000005
G1 X1368.008 Y496.497
G1 X1367.646 Y494.495
G1 X1367.371 Y492.599
G1 X1367.371 Y492.599
G1 X1340.542 Y492.599
G1 X1340.542 Y492.599
G1 X1341.334 Y494.433
G1 X1342.062 Y496.164
G1 X1342.759 Y497.88800000000003
G1 X1343.461 Y499.697
G1 X1344.201 Y501.688
G1 X1345.013 Y503.953
G1 X1345.931 Y506.587
G1 X1345.931 Y506.587
G1 X1370.352 Y575.608
G1 X1370.352 Y575.608
G1 X1371.261 Y578.229
G1 X1372.042 Y580.601
G1 X1372.702 Y582.745
G1 X1373.248 Y584.678
G1 X1373.685 Y586.42
G1 X1374.021 Y587.99
G1 X1374.021 Y587.99
G1 X1403.831 Y587.99
G1 X1403.831 Y587.99
G1 X1404.166 Y586.468
G1 X1404.603 Y584.754
G1 X1405.149 Y582.831
G1 X1405.809 Y580.678
G1 X1406.591 Y578.277
G1 X1407.499 Y575.608
G1 X1407.499 Y575.608
G1 X1431.806 Y506.587
G1 X1431.806 Y506.587
G1 X1432.929 Y503.501
G1 X1433.87 Y500.956
G1 X1434.67 Y498.84299999999996
G1 X1435.372 Y497.057
G1 X1436.018 Y495.492
G1 X1436.649 Y494.042
G1 X1437.309 Y492.599
G1 X1437.309 Y492.599
G1 X1410.366 Y492.599
G1 X1410.366 Y492.599
G1 X1410.155 Y494.503
G1 X1409.861 Y496.37
G1 X1409.477 Y498.274
G1 X1408.999 Y500.293
G1 X1408.418 Y502.504
G1 X1407.729 Y504.981
G1 X1407.729 Y504.981
G1 X1391.104 Y560.13
G1 X1391.104 Y560.13
G1 X1390.715 Y561.575
G1 X1390.316 Y563.01
G1 X1389.766 Y564.983
G1 X1388.926 Y568.041
G1 X1388.926 Y568.041
G1 X1388.182 Y565.208
G1 X1387.708 Y563.44
G1 X1387.297 Y561.994
G1 X1386.747 Y560.13
G1 X1386.747 Y560.13
G1 X1370.123 Y504.981
M5; lift marker up
G4 P0.08
G0 X1506.33 Y553.136
M3 S1000;put marker down
G4 P0.2
G1 X1506.33 Y566.206
G1 X1506.33 Y566.206
G1 X1504.252 Y567.206
G1 X1502.217 Y568.06
G1 X1500.204 Y568.772
G1 X1498.19 Y569.345
G1 X1496.155 Y569.783
G1 X1494.077 Y570.092
G1 X1491.934 Y570.274
G1 X1489.706 Y570.334
G1 X1489.706 Y570.334
G1 X1487.358 Y570.253
G1 X1485.132 Y570.015
G1 X1483.03 Y569.62
G1 X1481.056 Y569.073
G1 X1479.212 Y568.376
G1 X1477.502 Y567.531
G1 X1475.927 Y566.542
G1 X1474.49 Y565.412
G1 X1473.196 Y564.142
G1 X1473.196 Y564.142
G1 X1472.095 Y562.815
G1 X1471.085 Y561.356
G1 X1470.168 Y559.769
G1 X1469.344 Y558.057
G1 X1468.614 Y556.223
G1 X1467.979 Y554.268
G1 X1467.439 Y552.196
G1 X1466.996 Y550.01
G1 X1466.65 Y547.713
G1 X1466.401 Y545.307
G1 X1466.252 Y542.795
G1 X1466.202 Y540.18
G1 X1466.202 Y540.18
G1 X1466.256 Y537.487
G1 X1466.419 Y534.912
G1 X1466.689 Y532.457
G1 X1467.066 Y530.123
G1 X1467.548 Y527.912
G1 X1468.135 Y525.824
G1 X1468.826 Y523.861
G1 X1469.62 Y522.024
G1 X1470.516 Y520.316
G1 X1471.513 Y518.736
G1 X1472.61 Y517.286
G1 X1473.807 Y515.968
G1 X1475.102 Y514.784
G1 X1476.495 Y513.733
G1 X1477.985 Y512.819
G1 X1479.57 Y512.041
G1 X1481.25 Y511.40200000000004
G1 X1483.025 Y510.90200000000004
G1 X1484.892 Y510.544
G1 X1486.852 Y510.328
G1 X1488.903 Y510.255
G1 X1488.903 Y510.255
G1 X1491.226 Y510.352
G1 X1493.383 Y510.64200000000005
G1 X1495.381 Y511.13
G1 X1497.226 Y511.818
G1 X1498.925 Y512.71
G1 X1500.483 Y513.81
G1 X1500.483 Y513.81
G1 X1502.176 Y515.341
G1 X1503.536 Y517.12
G1 X1504.659 Y519.308
G1 X1505.642 Y522.065
G1 X1505.642 Y522.065
G1 X1529.032 Y516.676
G1 X1529.032 Y516.676
G1 X1528.242 Y514.437
G1 X1527.43 Y512.414
G1 X1526.574 Y510.56600000000003
G1 X1525.652 Y508.85699999999997
G1 X1524.641 Y507.24800000000005
G1 X1523.52 Y505.701
G1 X1522.267 Y504.179
G1 X1522.267 Y504.179
G1 X1520.975 Y502.69399999999996
G1 X1519.622 Y501.29499999999996
G1 X1518.206 Y499.98299999999995
G1 X1516.729 Y498.75800000000004
G1 X1515.189 Y497.619
G1 X1513.588 Y496.565
G1 X1511.924 Y495.597
G1 X1510.197 Y494.715
G1 X1508.408 Y493.917
G1 X1506.557 Y493.205
G1 X1504.643 Y492.577
G1 X1502.666 Y492.034
G1 X1500.626 Y491.575
G1 X1498.523 Y491.2
G1 X1496.356 Y490.909
G1 X1494.126 Y490.701
G1 X1491.833 Y490.577
G1 X1489.476 Y490.535
G1 X1489.476 Y490.535
G1 X1487.218 Y490.575
G1 X1485.004 Y490.693
G1 X1482.837 Y490.889
G1 X1480.716 Y491.162
G1 X1478.643 Y491.511
G1 X1476.618 Y491.935
G1 X1474.642 Y492.433
G1 X1472.717 Y493.005
G1 X1470.842 Y493.649
G1 X1469.02 Y494.365
G1 X1467.25 Y495.151
G1 X1465.533 Y496.007
G1 X1463.87 Y496.932
G1 X1462.263 Y497.92499999999995
G1 X1460.711 Y498.985
G1 X1459.216 Y500.111
G1 X1457.779 Y501.303
G1 X1456.4 Y502.558
G1 X1455.081 Y503.87800000000004
G1 X1453.821 Y505.26
G1 X1452.622 Y506.70399999999995
G1 X1451.485 Y508.20899999999995
G1 X1450.41 Y509.773
G1 X1449.399 Y511.39700000000005
G1 X1448.452 Y513.079
G1 X1447.57 Y514.818
G1 X1446.753 Y516.614
G1 X1446.003 Y518.465
G1 X1445.321 Y520.371
G1 X1444.707 Y522.331
G1 X1444.163 Y524.343
G1 X1443.688 Y526.408
G1 X1443.284 Y528.523
G1 X1442.951 Y530.689
G1 X1442.691 Y532.904
G1 X1442.504 Y535.167
G1 X1442.392 Y537.478
G1 X1442.354 Y539.836
G1 X1442.354 Y539.836
G1 X1442.39 Y542.176
G1 X1442.498 Y544.483
G1 X1442.676 Y546.755
G1 X1442.925 Y548.99
G1 X1443.243 Y551.185
G1 X1443.629 Y553.338
G1 X1444.084 Y555.447
G1 X1444.607 Y557.511
G1 X1445.196 Y559.526
G1 X1445.851 Y561.491
G1 X1446.571 Y563.404
G1 X1447.357 Y565.261
G1 X1448.206 Y567.063
G1 X1449.118 Y568.805
G1 X1450.093 Y570.486
G1 X1451.13 Y572.104
G1 X1452.228 Y573.657
G1 X1453.387 Y575.142
G1 X1454.605 Y576.557
G1 X1455.883 Y577.901
G1 X1455.883 Y577.901
G1 X1457.27 Y579.237
G1 X1458.715 Y580.496
G1 X1460.221 Y581.676
G1 X1461.786 Y582.778
G1 X1463.41 Y583.803
G1 X1465.094 Y584.75
G1 X1466.837 Y585.62
G1 X1468.639 Y586.414
G1 X1470.501 Y587.13
G1 X1472.423 Y587.771
G1 X1474.404 Y588.334
G1 X1476.444 Y588.823
G1 X1478.544 Y589.235
G1 X1480.703 Y589.572
G1 X1482.922 Y589.833
G1 X1485.2 Y590.02
G1 X1487.538 Y590.131
G1 X1489.935 Y590.169
G1 X1489.935 Y590.169
G1 X1492.053 Y590.14
G1 X1494.164 Y590.055
G1 X1496.264 Y589.914
G1 X1498.351 Y589.719
G1 X1500.423 Y589.469
G1 X1502.475 Y589.165
G1 X1504.506 Y588.81
G1 X1506.513 Y588.402
G1 X1508.493 Y587.944
G1 X1510.443 Y587.435
G1 X1512.36 Y586.877
G1 X1514.241 Y586.27
G1 X1514.241 Y586.27
G1 X1516.09 Y585.631
G1 X1517.806 Y584.981
G1 X1519.453 Y584.287
G1 X1521.092 Y583.519
G1 X1522.784 Y582.643
G1 X1524.592 Y581.627
G1 X1526.578 Y580.439
G1 X1528.802 Y579.047
G1 X1528.802 Y579.047
G1 X1528.57 Y577.133
G1 X1528.387 Y575.298
G1 X1528.246 Y573.471
G1 X1528.143 Y571.581
G1 X1528.072 Y569.556
G1 X1528.028 Y567.326
G1 X1528.006 Y564.819
G1 X1528.0 Y561.964
G1 X1528.0 Y561.964
G1 X1528.0 Y549.123
G1 X1528.0 Y549.123
G1 X1528.014 Y546.141
G1 X1528.059 Y543.535
G1 X1528.135 Y541.229
G1 X1528.246 Y539.15
G1 X1528.393 Y537.223
G1 X1528.577 Y535.375
G1 X1528.802 Y533.53
G1 X1528.802 Y533.53
G1 X1526.682 Y533.706
G1 X1524.619 Y533.844
G1 X1522.569 Y533.948
G1 X1520.491 Y534.022
G1 X1518.343 Y534.07
G1 X1516.083 Y534.096
G1 X1513.668 Y534.103
G1 X1513.668 Y534.103
G1 X1504.496 Y534.103
G1 X1504.496 Y534.103
G1 X1501.36 Y534.095
G1 X1498.751 Y534.067
G1 X1496.551 Y534.013
G1 X1494.642 Y533.927
G1 X1492.905 Y533.802
G1 X1491.223 Y533.634
G1 X1489.476 Y533.415
G1 X1489.476 Y533.415
G1 X1489.476 Y553.709
G1 X1489.476 Y553.709
G1 X1491.46 Y553.473
G1 X1493.323 Y553.309
G1 X1495.329 Y553.205
G1 X1497.742 Y553.151
G1 X1500.827 Y553.136
G1 X1500.827 Y553.136
G1 X1506.33 Y553.136
M5; lift marker up
G4 P0.08
; finished plotting
M5; lift up pen
G4 P0.08
G0X0Y0
;ug$1=0 ; unlock motors
